[
{"CCSDS_OMM_VERS":"2.0",
"COMMENT":"GENERATED VIA SPACE-TRACK.ORG API",
"CREATION_DATE":"2022-08-21T18:06:22",
"ORIGINATOR":"18 SPCS",
"OBJECT_NAME":"VANGUARD 1",
"OBJECT_ID":"1958-002B",
"CENTER_NAME":"EARTH",
"REF_FRAME":"TEME",
"TIME_SYSTEM":"UTC",
"MEAN_ELEMENT_THEORY":"SGP4",
"EPOCH":"2022-08-21T09:08:48.105312",
"MEAN_MOTION":"10.84995889",
"ECCENTRICITY":"0.18475190",
"INCLINATION":"34.2538",
"RA_OF_ASC_NODE":"299.3408",
"ARG_OF_PERICENTER":"329.7415",
"MEAN_ANOMALY":"20.8037",
"EPHEMERIS_TYPE":"0",
"CLASSIFICATION_TYPE":"U",
"NORAD_CAT_ID":"5",
"ELEMENT_SET_NO":"999",
"REV_AT_EPOCH":"29159",
"BSTAR":"0.00025723000000",
"MEAN_MOTION_DOT":"0.00000207",
"MEAN_MOTION_DDOT":"0.0000000000000",
"SEMIMAJOR_AXIS":"8618.859",
"PERIOD":"132.719",
"APOAPSIS":"3833.075",
"PERIAPSIS":"648.373",
"OBJECT_TYPE":"PAYLOAD",
"RCS_SIZE":"SMALL",
"COUNTRY_CODE":"US",
"LAUNCH_DATE":"1958-03-17",
"SITE":"AFETR",
"DECAY_DATE":null,
"FILE":"3542305",
"GP_ID":"210635483",
"TLE_LINE0":"0 VANGUARD 1",
"TLE_LINE1":"1 00005U 58002B   22233.38111233  .00000207  00000-0  25723-3 0  9995",
"TLE_LINE2":"2 00005  34.2538 299.3408 1847519 329.7415  20.8037 10.84995889291590"},
{"CCSDS_OMM_VERS":"2.0",
"COMMENT":"GENERATED VIA SPACE-TRACK.ORG API",
"CREATION_DATE":"2022-08-22T17:42:35",
"ORIGINATOR":"18 SPCS",
"OBJECT_NAME":"VANGUARD 1",
"OBJECT_ID":"1958-002B",
"CENTER_NAME":"EARTH",
"REF_FRAME":"TEME",
"TIME_SYSTEM":"UTC",
"MEAN_ELEMENT_THEORY":"SGP4",
"EPOCH":"2022-08-22T05:02:18.580992",
"MEAN_MOTION":"10.84996167",
"ECCENTRICITY":"0.18474900",
"INCLINATION":"34.2529",
"RA_OF_ASC_NODE":"296.7864",
"ARG_OF_PERICENTER":"333.4727",
"MEAN_ANOMALY":"18.1825",
"EPHEMERIS_TYPE":"0",
"CLASSIFICATION_TYPE":"U",
"NORAD_CAT_ID":"5",
"ELEMENT_SET_NO":"999",
"REV_AT_EPOCH":"29168",
"BSTAR":"0.00025225000000",
"MEAN_MOTION_DOT":"0.00000202",
"MEAN_MOTION_DDOT":"0.0000000000000",
"SEMIMAJOR_AXIS":"8618.858",
"PERIOD":"132.719",
"APOAPSIS":"3833.048",
"PERIAPSIS":"648.397",
"OBJECT_TYPE":"PAYLOAD",
"RCS_SIZE":"SMALL",
"COUNTRY_CODE":"US",
"LAUNCH_DATE":"1958-03-17",
"SITE":"AFETR",
"DECAY_DATE":null,
"FILE":"3543757",
"GP_ID":"210720246",
"TLE_LINE0":"0 VANGUARD 1",
"TLE_LINE1":"1 00005U 58002B   22234.20993728  .00000202  00000-0  25225-3 0  9996",
"TLE_LINE2":"2 00005  34.2529 296.7864 1847490 333.4727  18.1825 10.84996167291688"},
{"CCSDS_OMM_VERS":"2.0",
"COMMENT":"GENERATED VIA SPACE-TRACK.ORG API",
"CREATION_DATE":"2022-08-23T02:30:08",
"ORIGINATOR":"18 SPCS",
"OBJECT_NAME":"VANGUARD 1",
"OBJECT_ID":"1958-002B",
"CENTER_NAME":"EARTH",
"REF_FRAME":"TEME",
"TIME_SYSTEM":"UTC",
"MEAN_ELEMENT_THEORY":"SGP4",
"EPOCH":"2022-08-22T11:40:08.856768",
"MEAN_MOTION":"10.84996244",
"ECCENTRICITY":"0.18474530",
"INCLINATION":"34.2527",
"RA_OF_ASC_NODE":"295.9347",
"ARG_OF_PERICENTER":"334.7168",
"MEAN_ANOMALY":"17.3141",
"EPHEMERIS_TYPE":"0",
"CLASSIFICATION_TYPE":"U",
"NORAD_CAT_ID":"5",
"ELEMENT_SET_NO":"999",
"REV_AT_EPOCH":"29171",
"BSTAR":"0.00024836000000",
"MEAN_MOTION_DOT":"0.00000198",
"MEAN_MOTION_DDOT":"0.0000000000000",
"SEMIMAJOR_AXIS":"8618.857",
"PERIOD":"132.719",
"APOAPSIS":"3833.016",
"PERIAPSIS":"648.429",
"OBJECT_TYPE":"PAYLOAD",
"RCS_SIZE":"SMALL",
"COUNTRY_CODE":"US",
"LAUNCH_DATE":"1958-03-17",
"SITE":"AFETR",
"DECAY_DATE":null,
"FILE":"3544179",
"GP_ID":"210755947",
"TLE_LINE0":"0 VANGUARD 1",
"TLE_LINE1":"1 00005U 58002B   22234.48621362  .00000198  00000-0  24836-3 0  9999",
"TLE_LINE2":"2 00005  34.2527 295.9347 1847453 334.7168  17.3141 10.84996244291717"},
{"CCSDS_OMM_VERS":"2.0",
"COMMENT":"GENERATED VIA SPACE-TRACK.ORG API",
"CREATION_DATE":"2022-08-22T22:36:14",
"ORIGINATOR":"18 SPCS",
"OBJECT_NAME":"VANGUARD 1",
"OBJECT_ID":"1958-002B",
"CENTER_NAME":"EARTH",
"REF_FRAME":"TEME",
"TIME_SYSTEM":"UTC",
"MEAN_ELEMENT_THEORY":"SGP4",
"EPOCH":"2022-08-22T11:40:08.856768",
"MEAN_MOTION":"10.84996244",
"ECCENTRICITY":"0.18474530",
"INCLINATION":"34.2527",
"RA_OF_ASC_NODE":"295.9347",
"ARG_OF_PERICENTER":"334.7168",
"MEAN_ANOMALY":"17.3141",
"EPHEMERIS_TYPE":"0",
"CLASSIFICATION_TYPE":"U",
"NORAD_CAT_ID":"5",
"ELEMENT_SET_NO":"999",
"REV_AT_EPOCH":"29181",
"BSTAR":"0.00024836000000",
"MEAN_MOTION_DOT":"0.00000198",
"MEAN_MOTION_DDOT":"0.0000000000000",
"SEMIMAJOR_AXIS":"8618.857",
"PERIOD":"132.719",
"APOAPSIS":"3833.016",
"PERIAPSIS":"648.429",
"OBJECT_TYPE":"PAYLOAD",
"RCS_SIZE":"SMALL",
"COUNTRY_CODE":"US",
"LAUNCH_DATE":"1958-03-17",
"SITE":"AFETR",
"DECAY_DATE":null,
"FILE":"3543882",
"GP_ID":"210748217",
"TLE_LINE0":"0 VANGUARD 1",
"TLE_LINE1":"1     5U 58002B   22234.48621362  .00000198  00000-0  24836-3 0  9999",
"TLE_LINE2":"2     5  34.2527 295.9347 1847453 334.7168  17.3141 10.84996244291818"},
{"CCSDS_OMM_VERS":"2.0",
"COMMENT":"GENERATED VIA SPACE-TRACK.ORG API",
"CREATION_DATE":"2022-08-23T18:01:32",
"ORIGINATOR":"18 SPCS",
"OBJECT_NAME":"VANGUARD 1",
"OBJECT_ID":"1958-002B",
"CENTER_NAME":"EARTH",
"REF_FRAME":"TEME",
"TIME_SYSTEM":"UTC",
"MEAN_ELEMENT_THEORY":"SGP4",
"EPOCH":"2022-08-23T09:46:16.815648",
"MEAN_MOTION":"10.84996524",
"ECCENTRICITY":"0.18473990",
"INCLINATION":"34.2516",
"RA_OF_ASC_NODE":"293.0964",
"ARG_OF_PERICENTER":"338.8629",
"MEAN_ANOMALY":"14.4375",
"EPHEMERIS_TYPE":"0",
"CLASSIFICATION_TYPE":"U",
"NORAD_CAT_ID":"5",
"ELEMENT_SET_NO":"999",
"REV_AT_EPOCH":"29181",
"BSTAR":"0.00024033000000",
"MEAN_MOTION_DOT":"0.00000190",
"MEAN_MOTION_DDOT":"0.0000000000000",
"SEMIMAJOR_AXIS":"8618.856",
"PERIOD":"132.719",
"APOAPSIS":"3832.967",
"PERIAPSIS":"648.474",
"OBJECT_TYPE":"PAYLOAD",
"RCS_SIZE":"SMALL",
"COUNTRY_CODE":"US",
"LAUNCH_DATE":"1958-03-17",
"SITE":"AFETR",
"DECAY_DATE":null,
"FILE":"3545070",
"GP_ID":"210802304",
"TLE_LINE0":"0 VANGUARD 1",
"TLE_LINE1":"1 00005U 58002B   22235.40713907  .00000190  00000-0  24033-3 0  9990",
"TLE_LINE2":"2 00005  34.2516 293.0964 1847399 338.8629  14.4375 10.84996524291814"},
{"CCSDS_OMM_VERS":"2.0",
"COMMENT":"GENERATED VIA SPACE-TRACK.ORG API",
"CREATION_DATE":"2022-08-24T17:58:17",
"ORIGINATOR":"18 SPCS",
"OBJECT_NAME":"VANGUARD 1",
"OBJECT_ID":"1958-002B",
"CENTER_NAME":"EARTH",
"REF_FRAME":"TEME",
"TIME_SYSTEM":"UTC",
"MEAN_ELEMENT_THEORY":"SGP4",
"EPOCH":"2022-08-24T12:17:39.006528",
"MEAN_MOTION":"10.84996888",
"ECCENTRICITY":"0.18473330",
"INCLINATION":"34.2504",
"RA_OF_ASC_NODE":"289.6900",
"ARG_OF_PERICENTER":"343.8391",
"MEAN_ANOMALY":"11.0158",
"EPHEMERIS_TYPE":"0",
"CLASSIFICATION_TYPE":"U",
"NORAD_CAT_ID":"5",
"ELEMENT_SET_NO":"999",
"REV_AT_EPOCH":"29193",
"BSTAR":"0.00023035000000",
"MEAN_MOTION_DOT":"0.00000181",
"MEAN_MOTION_DDOT":"0.0000000000000",
"SEMIMAJOR_AXIS":"8618.854",
"PERIOD":"132.719",
"APOAPSIS":"3832.908",
"PERIAPSIS":"648.529",
"OBJECT_TYPE":"PAYLOAD",
"RCS_SIZE":"SMALL",
"COUNTRY_CODE":"US",
"LAUNCH_DATE":"1958-03-17",
"SITE":"AFETR",
"DECAY_DATE":null,
"FILE":"3546350",
"GP_ID":"210879723",
"TLE_LINE0":"0 VANGUARD 1",
"TLE_LINE1":"1 00005U 58002B   22236.51225702  .00000181  00000-0  23035-3 0  9995",
"TLE_LINE2":"2 00005  34.2504 289.6900 1847333 343.8391  11.0158 10.84996888291930"},
{"CCSDS_OMM_VERS":"2.0",
"COMMENT":"GENERATED VIA SPACE-TRACK.ORG API",
"CREATION_DATE":"2022-08-24T15:06:12",
"ORIGINATOR":"18 SPCS",
"OBJECT_NAME":"VANGUARD 1",
"OBJECT_ID":"1958-002B",
"CENTER_NAME":"EARTH",
"REF_FRAME":"TEME",
"TIME_SYSTEM":"UTC",
"MEAN_ELEMENT_THEORY":"SGP4",
"EPOCH":"2022-08-24T12:17:39.006528",
"MEAN_MOTION":"10.84996888",
"ECCENTRICITY":"0.18473330",
"INCLINATION":"34.2504",
"RA_OF_ASC_NODE":"289.6900",
"ARG_OF_PERICENTER":"343.8391",
"MEAN_ANOMALY":"11.0158",
"EPHEMERIS_TYPE":"0",
"CLASSIFICATION_TYPE":"U",
"NORAD_CAT_ID":"5",
"ELEMENT_SET_NO":"999",
"REV_AT_EPOCH":"29203",
"BSTAR":"0.00023035000000",
"MEAN_MOTION_DOT":"0.00000181",
"MEAN_MOTION_DDOT":"0.0000000000000",
"SEMIMAJOR_AXIS":"8618.854",
"PERIOD":"132.719",
"APOAPSIS":"3832.908",
"PERIAPSIS":"648.529",
"OBJECT_TYPE":"PAYLOAD",
"RCS_SIZE":"SMALL",
"COUNTRY_CODE":"US",
"LAUNCH_DATE":"1958-03-17",
"SITE":"AFETR",
"DECAY_DATE":null,
"FILE":"3546149",
"GP_ID":"210875000",
"TLE_LINE0":"0 VANGUARD 1",
"TLE_LINE1":"1     5U 58002B   22236.51225702  .00000181  00000-0  23035-3 0  9995",
"TLE_LINE2":"2     5  34.2504 289.6900 1847333 343.8391  11.0158 10.84996888292032"},
{"CCSDS_OMM_VERS":"2.0",
"COMMENT":"GENERATED VIA SPACE-TRACK.ORG API",
"CREATION_DATE":"2022-08-25T17:42:49",
"ORIGINATOR":"18 SPCS",
"OBJECT_NAME":"VANGUARD 1",
"OBJECT_ID":"1958-002B",
"CENTER_NAME":"EARTH",
"REF_FRAME":"TEME",
"TIME_SYSTEM":"UTC",
"MEAN_ELEMENT_THEORY":"SGP4",
"EPOCH":"2022-08-25T10:23:47.921856",
"MEAN_MOTION":"10.84997181",
"ECCENTRICITY":"0.18472880",
"INCLINATION":"34.2496",
"RA_OF_ASC_NODE":"286.8512",
"ARG_OF_PERICENTER":"347.9860",
"MEAN_ANOMALY":"8.1844",
"EPHEMERIS_TYPE":"0",
"CLASSIFICATION_TYPE":"U",
"NORAD_CAT_ID":"5",
"ELEMENT_SET_NO":"999",
"REV_AT_EPOCH":"29203",
"BSTAR":"0.00022372000000",
"MEAN_MOTION_DOT":"0.00000174",
"MEAN_MOTION_DDOT":"0.0000000000000",
"SEMIMAJOR_AXIS":"8618.852",
"PERIOD":"132.719",
"APOAPSIS":"3832.867",
"PERIAPSIS":"648.567",
"OBJECT_TYPE":"PAYLOAD",
"RCS_SIZE":"SMALL",
"COUNTRY_CODE":"US",
"LAUNCH_DATE":"1958-03-17",
"SITE":"AFETR",
"DECAY_DATE":null,
"FILE":"3547226",
"GP_ID":"210950004",
"TLE_LINE0":"0 VANGUARD 1",
"TLE_LINE1":"1 00005U 58002B   22237.43319354  .00000174  00000-0  22372-3 0  9999",
"TLE_LINE2":"2 00005  34.2496 286.8512 1847288 347.9860   8.1844 10.84997181292031"}]